GLOBALSTAR M057 [-]     
1 25943U 99058A   24002.43821052 -.00000111  00000+0 -16882-3 0  9999
2 25943  52.0001  57.2356 0002195   0.9857 359.0997 12.24780321101775
GLOBALSTAR M059 [-]     
1 25944U 99058B   24002.00998068 -.00000086  00000+0  37798-5 0  9996
2 25944  51.9984 206.8546 0001393  70.0039  96.8119 11.99959605 98902
GLOBALSTAR M056 [-]     
1 25945U 99058C   24002.06065351 -.00000142  00000+0 -63513-3 0  9999
2 25945  51.9935 222.3478 0001035 121.4589  45.0474 12.04774528 98489
GLOBALSTAR M031 [-]     
1 25946U 99058D   24002.59787571 -.00000107  00000+0 -17067-3 0  9997
2 25946  51.9944 145.0077 0002160 149.9340 292.9054 12.16001080 99876
GLOBALSTAR M039 [-]     
1 25961U 99062A   24002.53928375 -.00000078  00000+0  14098-3 0  9999
2 25961  51.9853  87.9438 0002478 235.2417 124.8216 12.62278189113072
GLOBALSTAR M034 [-]     
1 25962U 99062B   24002.16008838 -.00000059  00000+0  35567-3 0  9995
2 25962  51.9895 314.3193 0014228 114.6429 346.4064 11.79421650 75613
GLOBALSTAR M029 [-]     
1 25963U 99062C   24002.55035708 -.00000080  00000+0  72420-4 0  9999
2 25963  51.9808  93.8817 0003385 148.4776 312.6113 11.99872222105309
GLOBALSTAR M061 [-]     
1 25964U 99062D   24002.56755352 -.00000065  00000+0  25370-3 0  9999
2 25964  51.9779 130.2488 0006486  55.1608  29.1169 11.76755964 58597
